{
  "type": "FeatureCollection",
  "features": [
    {
      "type": "Feature",
      "properties": {
        "norad_id": 27954,
        "name": "GALAXY 13 (HORIZONS-1)",
        "group": "intelsat",
        "lat": 0.23061485137385454,
        "lon": -109.32824748207557,
        "alt_km": 35778.03232896955,
        "timestamp": "2025-12-08T21:31:04.342664+00:00",
        "meta_object_name": "GALAXY 13 (HORIZONS-1)",
        "meta_object_id": "2003-044A",
        "meta_epoch": "2025-12-08T14:36:09.006912",
        "meta_mean_motion": 1.00269697,
        "meta_eccentricity": 0.00020295,
        "meta_inclination": 0.9248,
        "meta_ra_of_asc_node": 86.5245,
        "meta_arg_of_pericenter": 160.3438,
        "meta_mean_anomaly": 259.7902,
        "meta_ephemeris_type": 0,
        "meta_classification_type": "U",
        "meta_norad_cat_id": 27954,
        "meta_element_set_no": 999,
        "meta_rev_at_epoch": 4466,
        "meta_bstar": 0,
        "meta_mean_motion_dot": 1.35e-06,
        "meta_mean_motion_ddot": 0,
        "tle_line1": "1 27954U 03044A   25342.60843758  .00000135  00000+0  00000+0 0  9992",
        "tle_line2": "2 27954   0.9248  86.5245 0002029 160.3438 259.7902  1.00269697 44664"
      },
      "geometry": {
        "type": "Point",
        "coordinates": [
          -109.32824748207557,
          0.23061485137385454
        ]
      }
    },
    {
      "type": "Feature",
      "properties": {
        "norad_id": 28358,
        "name": "INTELSAT 10-02",
        "group": "intelsat",
        "lat": 0.00031538261632592775,
        "lon": 39.69779102095435,
        "alt_km": 35787.54359330627,
        "timestamp": "2025-12-08T21:31:04.342676+00:00",
        "meta_object_name": "INTELSAT 10-02",
        "meta_object_id": "2004-022A",
        "meta_epoch": "2025-12-08T13:35:59.768736",
        "meta_mean_motion": 1.0027242,
        "meta_eccentricity": 0.00012205,
        "meta_inclination": 0.0328,
        "meta_ra_of_asc_node": 73.0267,
        "meta_arg_of_pericenter": 218.2082,
        "meta_mean_anomaly": 349.3587,
        "meta_ephemeris_type": 0,
        "meta_classification_type": "U",
        "meta_norad_cat_id": 28358,
        "meta_element_set_no": 999,
        "meta_rev_at_epoch": 7864,
        "meta_bstar": 0,
        "meta_mean_motion_dot": -8e-08,
        "meta_mean_motion_ddot": 0,
        "tle_line1": "1 28358U 04022A   25342.56666399 -.00000008  00000+0  00000+0 0  9997",
        "tle_line2": "2 28358   0.0328  73.0267 0001220 218.2082 349.3587  1.00272420 78646"
      },
      "geometry": {
        "type": "Point",
        "coordinates": [
          39.69779102095435,
          0.00031538261632592775
        ]
      }
    },
    {
      "type": "Feature",
      "properties": {
        "norad_id": 28626,
        "name": "XM-3 (RHYTHM)",
        "group": "intelsat",
        "lat": 0.1588310278328351,
        "lon": 173.2230932952219,
        "alt_km": 36165.11811217421,
        "timestamp": "2025-12-08T21:31:04.342688+00:00",
        "meta_object_name": "XM-3 (RHYTHM)",
        "meta_object_id": "2005-008A",
        "meta_epoch": "2025-12-08T14:21:38.470752",
        "meta_mean_motion": 0.98953996,
        "meta_eccentricity": 0.00013156,
        "meta_inclination": 0.164,
        "meta_ra_of_asc_node": 81.1442,
        "meta_arg_of_pericenter": 262.6864,
        "meta_mean_anomaly": 83.1621,
        "meta_ephemeris_type": 0,
        "meta_classification_type": "U",
        "meta_norad_cat_id": 28626,
        "meta_element_set_no": 999,
        "meta_rev_at_epoch": 4070,
        "meta_bstar": 0,
        "meta_mean_motion_dot": -2.54e-06,
        "meta_mean_motion_ddot": 0,
        "tle_line1": "1 28626U 05008A   25342.59836193 -.00000254  00000+0  00000+0 0  9997",
        "tle_line2": "2 28626   0.1640  81.1442 0001315 262.6864  83.1621  0.98953996 40701"
      },
      "geometry": {
        "type": "Point",
        "coordinates": [
          173.2230932952219,
          0.1588310278328351
        ]
      }
    },
    {
      "type": "Feature",
      "properties": {
        "norad_id": 28659,
        "name": "DIRECTV 8",
        "group": "intelsat",
        "lat": -0.03587570902749177,
        "lon": -78.3737803625728,
        "alt_km": 35773.31906003439,
        "timestamp": "2025-12-08T21:31:04.342700+00:00",
        "meta_object_name": "DIRECTV 8",
        "meta_object_id": "2005-019A",
        "meta_epoch": "2025-12-08T13:58:20.758080",
        "meta_mean_motion": 1.00271702,
        "meta_eccentricity": 0.00032075,
        "meta_inclination": 0.017,
        "meta_ra_of_asc_node": 357.8351,
        "meta_arg_of_pericenter": 263.9766,
        "meta_mean_anomaly": 266.3148,
        "meta_ephemeris_type": 0,
        "meta_classification_type": "U",
        "meta_norad_cat_id": 28659,
        "meta_element_set_no": 999,
        "meta_rev_at_epoch": 7516,
        "meta_bstar": 0,
        "meta_mean_motion_dot": 3e-08,
        "meta_mean_motion_ddot": 0,
        "tle_line1": "1 28659U 05019A   25342.58218470  .00000003  00000+0  00000+0 0  9997",
        "tle_line2": "2 28659   0.0170 357.8351 0003207 263.9766 266.3148  1.00271702 75162"
      },
      "geometry": {
        "type": "Point",
        "coordinates": [
          -78.3737803625728,
          -0.03587570902749177
        ]
      }
    },
    {
      "type": "Feature",
      "properties": {
        "norad_id": 28702,
        "name": "GALAXY 28 (G-28)",
        "group": "intelsat",
        "lat": -2.185460203647662,
        "lon": -48.02903974030353,
        "alt_km": 35779.64880468419,
        "timestamp": "2025-12-08T21:31:04.342712+00:00",
        "meta_object_name": "GALAXY 28 (G-28)",
        "meta_object_id": "2005-022A",
        "meta_epoch": "2025-12-08T12:28:32.519712",
        "meta_mean_motion": 1.00271307,
        "meta_eccentricity": 0.00026672,
        "meta_inclination": 2.8078,
        "meta_ra_of_asc_node": 81.331,
        "meta_arg_of_pericenter": 178.1608,
        "meta_mean_anomaly": 276.4849,
        "meta_ephemeris_type": 0,
        "meta_classification_type": "U",
        "meta_norad_cat_id": 28702,
        "meta_element_set_no": 999,
        "meta_rev_at_epoch": 5006,
        "meta_bstar": 0,
        "meta_mean_motion_dot": -1.86e-06,
        "meta_mean_motion_ddot": 0,
        "tle_line1": "1 28702U 05022A   25342.51982083 -.00000186  00000+0  00000+0 0  9994",
        "tle_line2": "2 28702   2.8078  81.3310 0002667 178.1608 276.4849  1.00271307 50066"
      },
      "geometry": {
        "type": "Point",
        "coordinates": [
          -48.02903974030353,
          -2.185460203647662
        ]
      }
    },
    {
      "type": "Feature",
      "properties": {
        "norad_id": 29236,
        "name": "GALAXY 16 (G-16)",
        "group": "intelsat",
        "lat": -0.0006187133223619143,
        "lon": -58.32650772730248,
        "alt_km": 35777.997272044384,
        "timestamp": "2025-12-08T21:31:04.342724+00:00",
        "meta_object_name": "GALAXY 16 (G-16)",
        "meta_object_id": "2006-023A",
        "meta_epoch": "2025-12-08T12:22:13.984896",
        "meta_mean_motion": 1.00272712,
        "meta_eccentricity": 0.00029104,
        "meta_inclination": 0.0097,
        "meta_ra_of_asc_node": 98.0987,
        "meta_arg_of_pericenter": 152.9659,
        "meta_mean_anomaly": 273.0004,
        "meta_ephemeris_type": 0,
        "meta_classification_type": "U",
        "meta_norad_cat_id": 29236,
        "meta_element_set_no": 999,
        "meta_rev_at_epoch": 7106,
        "meta_bstar": 0,
        "meta_mean_motion_dot": -1.25e-06,
        "meta_mean_motion_ddot": 0,
        "tle_line1": "1 29236U 06023A   25342.51543964 -.00000125  00000+0  00000+0 0  9993",
        "tle_line2": "2 29236   0.0097  98.0987 0002910 152.9659 273.0004  1.00272712 71062"
      },
      "geometry": {
        "type": "Point",
        "coordinates": [
          -58.32650772730248,
          -0.0006187133223619143
        ]
      }
    },
    {
      "type": "Feature",
      "properties": {
        "norad_id": 29494,
        "name": "DIRECTV 9S",
        "group": "intelsat",
        "lat": -1.1565261434073375,
        "lon": -60.54307051500811,
        "alt_km": 35776.08472963944,
        "timestamp": "2025-12-08T21:31:04.342736+00:00",
        "meta_object_name": "DIRECTV 9S",
        "meta_object_id": "2006-043A",
        "meta_epoch": "2025-12-08T12:21:41.000832",
        "meta_mean_motion": 1.00270638,
        "meta_eccentricity": 0.0003201,
        "meta_inclination": 1.9291,
        "meta_ra_of_asc_node": 83.2497,
        "meta_arg_of_pericenter": 176.8232,
        "meta_mean_anomaly": 261.6554,
        "meta_ephemeris_type": 0,
        "meta_classification_type": "U",
        "meta_norad_cat_id": 29494,
        "meta_element_set_no": 999,
        "meta_rev_at_epoch": 4947,
        "meta_bstar": 0,
        "meta_mean_motion_dot": -1.11e-06,
        "meta_mean_motion_ddot": 0,
        "tle_line1": "1 29494U 06043A   25342.51505788 -.00000111  00000+0  00000+0 0  9998",
        "tle_line2": "2 29494   1.9291  83.2497 0003201 176.8232 261.6554  1.00270638 49470"
      },
      "geometry": {
        "type": "Point",
        "coordinates": [
          -60.54307051500811,
          -1.1565261434073375
        ]
      }
    }
  ]
}